SL-14 R/B               
1 16792U 86046B   25358.83926682  .00000555  00000+0  61098-4 0  9998
2 16792  82.4817 150.8871 0024504 114.0550 246.3234 14.85497265115291
SL-14 R/B               
1 16882U 86055B   25359.04933110  .00000487  00000+0  53484-4 0  9990
2 16882  82.5194 196.8057 0018008 215.6456 259.8644 14.85542099108282
AJISAI (EGS)            
1 16908U 86061A   25359.11417572 -.00000086  00000+0  79995-4 0  9994
2 16908  50.0112 322.6669 0011317  96.9649 349.6396 12.44514419458715
COSMOS 1812             
1 17295U 87003A   25359.16943497  .00117018  00000+0  68137-3 0  9994
2 17295  82.4873 278.5380 0006338  69.1779 291.0165 15.78072965132617
SL-14 R/B               
1 17567U 87024B   25358.96715606  .00000579  00000+0  63168-4 0  9998
2 17567  82.5278 162.9677 0019120 144.4774 215.7720 14.86036427 77034
COSMOS 1833             
1 17589U 87027A   25358.75225226  .00000284  00000+0  17763-3 0  9998
2 17589  70.9160 123.5251 0023060 314.9441  44.9809 14.13027852999724
SL-16 R/B               
1 17590U 87027B   25359.15484062 -.00000052  00000+0 -17675-5 0  9999
2 17590  71.0038  73.5580 0007216 246.7646 113.2718 14.17156596  4789
SL-14 R/B               
1 17912U 87038B   25358.99105681  .00000501  00000+0  55314-4 0  9995
2 17912  82.5010   7.1605 0020608  54.4396 305.8737 14.85272215 68143
COSMOS 1844             
1 17973U 87041A   25359.00799531  .00000335  00000+0  19901-3 0  9998
2 17973  70.8967 191.6949 0029591 137.6859 222.6553 14.14531331993024
SL-14 R/B               
1 18153U 87055B   25359.18285528  .00000509  00000+0  56035-4 0  9992
2 18153  82.4991  59.2615 0019177 258.9895 100.9164 14.85533431 58878
COSMOS 1867             
1 18187U 87060A   25358.75891044 -.00000042  00000+0  21734-4 0  9994
2 18187  65.0090 156.5437 0013671 272.2694  87.6825 14.31487908  9211
SL-14 R/B               
1 18749U 88001B   25359.17329237  .00000508  00000+0  55900-4 0  9999
2 18749  82.5134 265.4536 0019384 122.0248 238.2854 14.85436295 30966
